NORAD_CAT_ID,OBJECT_NAME,OBJECT_TYPE,EPOCH,MEAN_MOTION,ECCENTRICITY,INCLINATION,RA_OF_ASC_NODE,ARG_OF_PERICENTER,MEAN_ANOMALY,BSTAR,MEAN_MOTION_DOT,MEAN_MOTION_DDOT,TLE_LINE0,TLE_LINE1,TLE_LINE2,SEMIMAJOR_AXIS,PERIOD,APOGEE,PERIGEE,DECAYED
53161.0,STARLINK-4055,PAYLOAD,2024-02-21 21:46:13,15.08841237,0.000134,53.2167,276.5573,87.6651,272.4495,0.00017824,2.55e-05,0.0,0 STARLINK-4055,1 53161U 22083AF  24052.90710064  .00002550  00000-0  17824-3 0  9998,2 53161  53.2167 276.5573 0001340  87.6651 272.4495 15.08841237 88624,6917.877,95.437,540.669,538.815,0.0
53161.0,STARLINK-4055,PAYLOAD,2024-02-22 07:18:32,15.08842737,0.0001372,53.2156,274.7726,83.4517,276.6631,0.00010087,1.318e-05,0.0,0 STARLINK-4055,1 53161U 22083AF  24053.30454016  .00001318  00000-0  10087-3 0  9990,2 53161  53.2156 274.7726 0001372  83.4517 276.6631 15.08842737 88682,6917.872,95.437,540.686,538.788,0.0
53161.0,STARLINK-4055,PAYLOAD,2024-02-22 21:37:00,15.08844316,0.0001352,53.2158,272.0991,85.7847,274.33,-2.6002e-05,-7.02e-06,0.0,0 STARLINK-4055,1 53161U 22083AF  24053.90069809 -.00000702  00000-0 -26002-4 0  9991,2 53161  53.2158 272.0991 0001352  85.7847 274.3300 15.08844316 88771,6917.867,95.437,540.667,538.797,0.0
53161.0,STARLINK-4055,PAYLOAD,2024-02-23 07:09:19,15.08836501,0.0001316,53.2146,270.3133,80.3348,279.7793,0.00011566,1.553e-05,0.0,0 STARLINK-4055,1 53161U 22083AF  24054.29814227  .00001553  00000-0  11566-3 0  9997,2 53161  53.2146 270.3133 0001316  80.3348 279.7793 15.08836501 89463,6917.891,95.438,540.666,538.846,0.0
53161.0,STARLINK-4055,PAYLOAD,2024-02-23 19:52:25,15.08831977,0.0001382,53.2177,267.9373,92.9712,267.1439,-3.8185e-06,-3.49e-06,0.0,0 STARLINK-4055,1 53161U 22083AF  24054.82807196 -.00000349  00000-0 -38185-5 0  9995,2 53161  53.2177 267.9373 0001382  92.9712 267.1439 15.08831977 89541,6917.905,95.438,540.726,538.814,0.0
53161.0,STARLINK-4055,PAYLOAD,2024-02-23 21:27:48,15.08832057,0.0001382,53.2171,267.6383,92.1752,267.9398,-1.9484e-05,-5.98e-06,0.0,0 STARLINK-4055,1 53161U 22083AF  24054.89431192 -.00000598  00000-0 -19484-4 0  9997,2 53161  53.2171 267.6383 0001382  92.1752 267.9398 15.08832057 88922,6917.905,95.438,540.726,538.814,0.0
53161.0,STARLINK-4055,PAYLOAD,2024-02-24 13:21:39,15.08835405,0.0001388,53.2173,264.6643,87.3486,272.7665,0.00010283,1.349e-05,0.0,0 STARLINK-4055,1 53161U 22083AF  24055.55671077  .00001349  00000-0  10283-3 0  9999,2 53161  53.2173 264.6643 0001388  87.3486 272.7665 15.08835405 89029,6917.894,95.438,540.72,538.799,0.0
53161.0,STARLINK-4055,PAYLOAD,2024-02-25 06:50:53,15.08843,0.0001487,53.218,261.3937,83.9757,276.1404,0.0001311,1.799e-05,0.0,0 STARLINK-4055,1 53161U 22083AF  24056.28534641  .00001799  00000-0  13110-3 0  9996,2 53161  53.2180 261.3937 0001487  83.9757 276.1404 15.08843000 89760,6917.871,95.437,540.765,538.708,0.0
53161.0,STARLINK-4055,PAYLOAD,2024-02-25 22:44:44,15.08857547,0.0001303,53.2154,258.4192,83.7552,276.3588,0.00041174,6.274e-05,0.0,0 STARLINK-4055,1 53161U 22083AF  24056.94773932  .00006274  00000-0  41174-3 0  9991,2 53161  53.2154 258.4192 0001303  83.7552 276.3588 15.08857547 89237,6917.827,95.436,540.593,538.79,0.0
53161.0,STARLINK-4055,PAYLOAD,2024-02-26 13:03:13,15.08842189,0.0001314,53.2149,255.7434,76.8938,283.2201,7.2696e-05,8.69e-06,0.0,0 STARLINK-4055,1 53161U 22083AF  24057.54390556  .00000869  00000-0  72696-4 0  9993,2 53161  53.2149 255.7434 0001314  76.8938 283.2201 15.08842189 89328,6917.874,95.437,540.648,538.83,0.0
53161.0,STARLINK-4055,PAYLOAD,2024-02-26 19:24:45,15.08844496,0.0001396,53.2163,254.5509,107.9861,252.1283,4.4382e-05,4.19e-06,0.0,0 STARLINK-4055,1 53161U 22083AF  24057.80886303  .00000419  00000-0  44382-4 0  9994,2 53161  53.2163 254.5509 0001396 107.9861 252.1283 15.08844496 89996,6917.867,95.437,540.697,538.766,0.0
53161.0,STARLINK-4055,PAYLOAD,2024-02-27 06:32:28,15.08841795,0.0001409,53.2151,252.4718,71.7584,288.3562,5.8542e-05,6.44e-06,0.0,0 STARLINK-4055,1 53161U 22083AF  24058.27254652  .00000644  00000-0  58542-4 0  9995,2 53161  53.2151 252.4718 0001409  71.7584 288.3562 15.08841795 90067,6917.875,95.437,540.715,538.765,0.0
53161.0,STARLINK-4055,PAYLOAD,2024-02-27 22:26:19,15.0884306,0.0001391,53.215,249.4969,78.6003,281.5145,0.00013615,1.88e-05,0.0,0 STARLINK-4055,1 53161U 22083AF  24058.93494694  .00001880  00000-0  13615-3 0  9994,2 53161  53.2150 249.4969 0001391  78.6003 281.5145 15.08843060 89531,6917.871,95.437,540.698,538.774,0.0
53161.0,STARLINK-4055,PAYLOAD,2024-02-28 12:44:47,15.08841159,0.0001488,53.2152,246.8191,82.2257,277.8904,0.0001116,1.489e-05,0.0,0 STARLINK-4055,1 53161U 22083AF  24059.53110903  .00001489  00000-0  11160-3 0  9997,2 53161  53.2152 246.8191 0001488  82.2257 277.8904 15.08841159 89628,6917.877,95.437,540.771,538.712,0.0
53161.0,STARLINK-4055,PAYLOAD,2024-02-28 19:06:20,15.08843285,0.000133,53.2152,245.6317,76.6824,283.4316,0.00022479,3.292e-05,0.0,0 STARLINK-4055,1 53161U 22083AF  24059.79606829  .00003292  00000-0  22479-3 0  9991,2 53161  53.2152 245.6317 0001330  76.6824 283.4316 15.08843285 90295,6917.87,95.437,540.655,538.815,0.0
53161.0,STARLINK-4055,PAYLOAD,2024-02-29 12:35:34,15.08843131,0.0001331,53.2155,242.3609,75.7569,284.357,0.00017179,2.447e-05,0.0,0 STARLINK-4055,1 53161U 22083AF  24060.52470836  .00002447  00000-0  17179-3 0  9993,2 53161  53.2155 242.3609 0001331  75.7569 284.3570 15.08843131 89776,6917.871,95.437,540.657,538.815,0.0
53161.0,STARLINK-4055,PAYLOAD,2024-02-29 18:57:07,15.08846874,0.000132,53.2155,241.1712,75.6423,284.4715,0.00020096,2.912e-05,0.0,0 STARLINK-4055,1 53161U 22083AF  24060.78966588  .00002912  00000-0  20096-3 0  9994,2 53161  53.2155 241.1712 0001320  75.6423 284.4715 15.08846874 89818,6917.859,95.437,540.638,538.811,0.0
53161.0,STARLINK-4055,PAYLOAD,2024-03-01 12:26:21,15.0883992,0.0001315,53.216,237.9018,76.5633,283.5505,3.6967e-05,3e-06,0.0,0 STARLINK-4055,1 53161U 22083AF  24061.51830898  .00000300  00000-0  36967-4 0  9994,2 53161  53.2160 237.9018 0001315  76.5633 283.5505 15.08839920 90557,6917.881,95.438,540.655,538.836,0.0
53161.0,STARLINK-4055,PAYLOAD,2024-03-01 17:12:31,15.08840813,0.0001307,53.2159,237.0097,75.9897,284.1241,3.5876e-05,2.83e-06,0.0,0 STARLINK-4055,1 53161U 22083AF  24061.71702801  .00000283  00000-0  35876-4 0  9996,2 53161  53.2159 237.0097 0001307  75.9897 284.1241 15.08840813 89958,6917.878,95.438,540.647,538.839,0.0
53161.0,STARLINK-4055,PAYLOAD,2024-03-02 17:03:18,15.0884293,0.0001369,53.2173,232.5524,93.35,266.7649,8.1305e-05,1.006e-05,0.0,0 STARLINK-4055,1 53161U 22083AF  24062.71062944  .00001006  00000-0  81305-4 0  9996,2 53161  53.2173 232.5524 0001369  93.3500 266.7649 15.08842930 90730,6917.871,95.437,540.683,538.789,0.0
53161.0,STARLINK-4055,PAYLOAD,2024-03-03 10:32:32,15.08841231,0.0001318,53.2166,229.278,93.4717,266.6426,0.00010685,1.413e-05,0.0,0 STARLINK-4055,1 53161U 22083AF  24063.43927051  .00001413  00000-0  10685-3 0  9999,2 53161  53.2166 229.2780 0001318  93.4717 266.6426 15.08841231 90212,6917.877,95.437,540.653,538.83,0.0
53161.0,STARLINK-4055,PAYLOAD,2024-03-03 18:29:28,15.08843574,0.0001328,53.2167,227.7908,90.6692,269.4453,0.0001149,1.541e-05,0.0,0 STARLINK-4055,1 53161U 22083AF  24063.77046870  .00001541  00000-0  11490-3 0  9994,2 53161  53.2167 227.7908 0001328  90.6692 269.4453 15.08843574 90897,6917.869,95.437,540.653,538.816,0.0
53161.0,STARLINK-4055,PAYLOAD,2024-03-04 04:01:46,15.08849332,0.0001362,53.2169,226.0059,87.0701,273.0447,0.00016494,2.339e-05,0.0,0 STARLINK-4055,1 53161U 22083AF  24064.16790346  .00002339  00000-0  16494-3 0  9997,2 53161  53.2169 226.0059 0001362  87.0701 273.0447 15.08849332 90327,6917.852,95.437,540.659,538.775,0.0
53161.0,STARLINK-4055,PAYLOAD,2024-03-04 18:20:14,15.08857143,0.0001342,53.2157,223.3296,86.2079,273.9066,0.00030499,4.572e-05,0.0,0 STARLINK-4055,1 53161U 22083AF  24064.76405775  .00004572  00000-0  30499-3 0  9994,2 53161  53.2157 223.3296 0001342  86.2079 273.9066 15.08857143 91049,6917.828,95.436,540.621,538.765,0.0
53161.0,STARLINK-4055,PAYLOAD,2024-03-05 10:14:06,15.08837255,0.0001404,53.2163,220.3557,82.0789,278.0363,-2.5998e-05,-7.02e-06,0.0,0 STARLINK-4055,1 53161U 22083AF  24065.42646905 -.00000702  00000-0 -25998-4 0  9992,2 53161  53.2163 220.3557 0001404  82.0789 278.0363 15.08837255 90513,6917.889,95.438,540.725,538.783,0.0
53161.0,STARLINK-4055,PAYLOAD,2024-03-05 19:46:25,15.08835318,0.0001261,53.2155,218.5705,97.2075,262.906,-4.9675e-05,-1.078e-05,0.0,0 STARLINK-4055,1 53161U 22083AF  24065.82390877 -.00001078  00000-0 -49675-4 0  9995,2 53161  53.2155 218.5705 0001261  97.2075 262.9060 15.08835318 91206,6917.895,95.438,540.632,538.887,0.0
53161.0,STARLINK-4055,PAYLOAD,2024-03-06 13:15:40,15.08839983,0.0001377,53.2147,215.2992,103.0215,257.0931,0.00031766,4.771e-05,0.0,0 STARLINK-4055,1 53161U 22083AF  24066.55255139  .00004771  00000-0  31766-3 0  9999,2 53161  53.2147 215.2992 0001377 103.0215 257.0931 15.08839983 90684,6917.88,95.438,540.698,538.793,0.0
53161.0,STARLINK-4055,PAYLOAD,2024-03-06 14:51:03,15.08842884,0.0001394,53.215,215.0018,100.4502,259.6648,0.0004071,6.197e-05,0.0,0 STARLINK-4055,1 53161U 22083AF  24066.61879139  .00006197  00000-0  40710-3 0  9991,2 53161  53.2150 215.0018 0001394 100.4502 259.6648 15.08842884 91323,6917.872,95.437,540.701,538.772,0.0
53161.0,STARLINK-4055,PAYLOAD,2024-03-07 14:41:50,15.08863299,0.0001448,53.215,210.5412,97.398,262.7176,0.0010345,0.00016225,0.0,0 STARLINK-4055,1 53161U 22083AF  24067.61239535  .00016225  00000-0  10345-2 0  9995,2 53161  53.2150 210.5412 0001448  97.3980 262.7176 15.08863299 90845,6917.809,95.436,540.676,538.672,0.0
53161.0,STARLINK-4055,PAYLOAD,2024-03-08 09:46:28,15.08847418,0.0001651,53.2163,206.9765,81.1846,278.9333,0.00025909,3.839e-05,0.0,0 STARLINK-4055,1 53161U 22083AF  24068.40727594  .00003839  00000-0  25909-3 0  9990,2 53161  53.2163 206.9765 0001651  81.1846 278.9333 15.08847418 91599,6917.858,95.437,540.865,538.581,0.0
